ONEWEB-0124             
1 47270U 20100N   25360.13829457  .00000411  00000+0  11082-2 0  9997
2 47270  87.8921  25.0552 0001913  92.9199 267.2148 13.12442919241877
ONEWEB-0125             
1 47271U 20100P   25360.11626923 -.00000209  00000+0 -61630-3 0  9991
2 47271  87.8934  25.0244 0002000  98.9112 261.2243 13.12442361241937
ONEWEB-0126             
1 47272U 20100Q   25360.06048578  .00000468  00000+0  12641-2 0  9992
2 47272  87.8930  25.0583 0001649  96.5644 263.5673 13.12441476241996
ONEWEB-0127             
1 47273U 20100R   25360.02644447 -.00000398  00000+0 -11431-2 0  9996
2 47273  87.8924  25.0745 0001611  94.5840 265.5472 13.12440263242011
ONEWEB-0128             
1 47274U 20100S   25360.12470685 -.00000025  00000+0 -10410-3 0  9993
2 47274  87.8920  25.0711 0001842  85.2682 274.8657 13.12442443242041
ONEWEB-0129             
1 47275U 20100T   25360.02814859 -.00000408  00000+0 -11691-2 0  9994
2 47275  87.8935  25.0464 0000602 109.1161 251.0033 13.12441760241960
ONEWEB-0130             
1 47276U 20100U   25360.13151616  .00000279  00000+0  73996-3 0  9993
2 47276  87.8931  25.0201 0001686  91.5663 268.5658 13.12443178241949
ONEWEB-0131             
1 47277U 20100V   25360.12810894  .00000159  00000+0  40685-3 0  9999
2 47277  87.8933  25.0510 0001785  93.3164 266.8169 13.12441880241981
ONEWEB-0132             
1 47278U 20100W   25360.30938782  .00000154  00000+0  39162-3 0  9990
2 47278  87.8929  25.0162 0001810  92.0120 268.1216 13.12441187241907
ONEWEB-0133             
1 47279U 20100X   25360.32618347 -.00000368  00000+0 -10577-2 0  9992
2 47279  87.8926  24.9744 0001822  89.1941 270.9396 13.12441339242067
ONEWEB-0134             
1 47280U 20100Y   25360.14338173  .00000517  00000+0  14023-2 0  9994
2 47280  87.8929  25.0065 0001671  85.3464 274.7855 13.12442910242013
ONEWEB-0135             
1 47281U 20100Z   25360.03832609 -.00000222  00000+0 -65145-3 0  9993
2 47281  87.8931  25.0673 0001718  82.5203 277.6121 13.12442769242025
ONEWEB-0136             
1 47282U 20100AA  25360.05696352  .00000361  00000+0  96929-3 0  9995
2 47282  87.8932  25.0329 0001503  84.2934 275.8366 13.12442065241958
ONEWEB-0137             
1 47283U 20100AB  25360.31954543 -.00000128  00000+0 -39007-3 0  9991
2 47283  87.8930  24.9861 0001801  97.9295 262.2038 13.12441523241895
ONEWEB-0138             
1 47284U 20100AC  25359.99258822  .00000466  00000+0  12611-2 0  9995
2 47284  87.8931  25.0598 0001614  85.5938 274.5375 13.12442045241930
ONEWEB-0139             
1 47285U 20100AD  25360.10960514 -.00000368  00000+0 -10579-2 0  9993
2 47285  87.8929  25.0263 0001742  94.4792 265.6536 13.12442553242021
ONEWEB-0140             
1 47286U 20100AE  25360.06375836  .00000441  00000+0  11892-2 0  9995
2 47286  87.8929  25.0226 0001676  89.8746 270.2575 13.12442037241980
