[{"OBJECT_NAME":"ONEWEB-0124","OBJECT_ID":"2020-100N","EPOCH":"2025-12-26T03:19:08.650848","MEAN_MOTION":13.12442919,"ECCENTRICITY":0.00019134,"INCLINATION":87.8921,"RA_OF_ASC_NODE":25.0552,"ARG_OF_PERICENTER":92.9199,"MEAN_ANOMALY":267.2148,"EPHEMERIS_TYPE":0,"CLASSIFICATION_TYPE":"U","NORAD_CAT_ID":47270,"ELEMENT_SET_NO":999,"REV_AT_EPOCH":24187,"BSTAR":0.001108193,"MEAN_MOTION_DOT":4.11e-6,"MEAN_MOTION_DDOT":0},{"OBJECT_NAME":"ONEWEB-0125","OBJECT_ID":"2020-100P","EPOCH":"2025-12-26T02:47:25.661472","MEAN_MOTION":13.12442361,"ECCENTRICITY":0.00020008,"INCLINATION":87.8934,"RA_OF_ASC_NODE":25.0244,"ARG_OF_PERICENTER":98.9112,"MEAN_ANOMALY":261.2243,"EPHEMERIS_TYPE":0,"CLASSIFICATION_TYPE":"U","NORAD_CAT_ID":47271,"ELEMENT_SET_NO":999,"REV_AT_EPOCH":24193,"BSTAR":-0.00061629918,"MEAN_MOTION_DOT":-2.09e-6,"MEAN_MOTION_DDOT":0},{"OBJECT_NAME":"ONEWEB-0126","OBJECT_ID":"2020-100Q","EPOCH":"2025-12-26T01:27:05.971392","MEAN_MOTION":13.12441476,"ECCENTRICITY":0.0001649,"INCLINATION":87.893,"RA_OF_ASC_NODE":25.0583,"ARG_OF_PERICENTER":96.5644,"MEAN_ANOMALY":263.5673,"EPHEMERIS_TYPE":0,"CLASSIFICATION_TYPE":"U","NORAD_CAT_ID":47272,"ELEMENT_SET_NO":999,"REV_AT_EPOCH":24199,"BSTAR":0.0012641244,"MEAN_MOTION_DOT":4.68e-6,"MEAN_MOTION_DDOT":0},{"OBJECT_NAME":"ONEWEB-0127","OBJECT_ID":"2020-100R","EPOCH":"2025-12-26T00:38:04.802208","MEAN_MOTION":13.12440263,"ECCENTRICITY":0.00016111,"INCLINATION":87.8924,"RA_OF_ASC_NODE":25.0745,"ARG_OF_PERICENTER":94.584,"MEAN_ANOMALY":265.5472,"EPHEMERIS_TYPE":0,"CLASSIFICATION_TYPE":"U","NORAD_CAT_ID":47273,"ELEMENT_SET_NO":999,"REV_AT_EPOCH":24201,"BSTAR":-0.0011431116,"MEAN_MOTION_DOT":-3.98e-6,"MEAN_MOTION_DDOT":0},{"OBJECT_NAME":"ONEWEB-0128","OBJECT_ID":"2020-100S","EPOCH":"2025-12-26T02:59:34.671840","MEAN_MOTION":13.12442443,"ECCENTRICITY":0.00018426,"INCLINATION":87.892,"RA_OF_ASC_NODE":25.0711,"ARG_OF_PERICENTER":85.2682,"MEAN_ANOMALY":274.8657,"EPHEMERIS_TYPE":0,"CLASSIFICATION_TYPE":"U","NORAD_CAT_ID":47274,"ELEMENT_SET_NO":999,"REV_AT_EPOCH":24204,"BSTAR":-0.00010410186,"MEAN_MOTION_DOT":-2.5e-7,"MEAN_MOTION_DDOT":0},{"OBJECT_NAME":"ONEWEB-0129","OBJECT_ID":"2020-100T","EPOCH":"2025-12-26T00:40:32.038176","MEAN_MOTION":13.1244176,"ECCENTRICITY":6.026e-5,"INCLINATION":87.8935,"RA_OF_ASC_NODE":25.0464,"ARG_OF_PERICENTER":109.1161,"MEAN_ANOMALY":251.0033,"EPHEMERIS_TYPE":0,"CLASSIFICATION_TYPE":"U","NORAD_CAT_ID":47275,"ELEMENT_SET_NO":999,"REV_AT_EPOCH":24196,"BSTAR":-0.0011690516,"MEAN_MOTION_DOT":-4.08e-6,"MEAN_MOTION_DDOT":0},{"OBJECT_NAME":"ONEWEB-0130","OBJECT_ID":"2020-100U","EPOCH":"2025-12-26T03:09:22.996224","MEAN_MOTION":13.12443178,"ECCENTRICITY":0.00016868,"INCLINATION":87.8931,"RA_OF_ASC_NODE":25.0201,"ARG_OF_PERICENTER":91.5663,"MEAN_ANOMALY":268.5658,"EPHEMERIS_TYPE":0,"CLASSIFICATION_TYPE":"U","NORAD_CAT_ID":47276,"ELEMENT_SET_NO":999,"REV_AT_EPOCH":24194,"BSTAR":0.00073995802,"MEAN_MOTION_DOT":2.79e-6,"MEAN_MOTION_DDOT":0},{"OBJECT_NAME":"ONEWEB-0131","OBJECT_ID":"2020-100V","EPOCH":"2025-12-26T03:04:28.612416","MEAN_MOTION":13.1244188,"ECCENTRICITY":0.00017855,"INCLINATION":87.8933,"RA_OF_ASC_NODE":25.051,"ARG_OF_PERICENTER":93.3164,"MEAN_ANOMALY":266.8169,"EPHEMERIS_TYPE":0,"CLASSIFICATION_TYPE":"U","NORAD_CAT_ID":47277,"ELEMENT_SET_NO":999,"REV_AT_EPOCH":24198,"BSTAR":0.00040685459,"MEAN_MOTION_DOT":1.59e-6,"MEAN_MOTION_DDOT":0},{"OBJECT_NAME":"ONEWEB-0132","OBJECT_ID":"2020-100W","EPOCH":"2025-12-26T07:25:31.107648","MEAN_MOTION":13.12441187,"ECCENTRICITY":0.00018104,"INCLINATION":87.8929,"RA_OF_ASC_NODE":25.0162,"ARG_OF_PERICENTER":92.012,"MEAN_ANOMALY":268.1216,"EPHEMERIS_TYPE":0,"CLASSIFICATION_TYPE":"U","NORAD_CAT_ID":47278,"ELEMENT_SET_NO":999,"REV_AT_EPOCH":24190,"BSTAR":0.00039162474,"MEAN_MOTION_DOT":1.54e-6,"MEAN_MOTION_DDOT":0},{"OBJECT_NAME":"ONEWEB-0133","OBJECT_ID":"2020-100X","EPOCH":"2025-12-26T07:49:42.251808","MEAN_MOTION":13.12441339,"ECCENTRICITY":0.00018227,"INCLINATION":87.8926,"RA_OF_ASC_NODE":24.9744,"ARG_OF_PERICENTER":89.1941,"MEAN_ANOMALY":270.9396,"EPHEMERIS_TYPE":0,"CLASSIFICATION_TYPE":"U","NORAD_CAT_ID":47279,"ELEMENT_SET_NO":999,"REV_AT_EPOCH":24206,"BSTAR":-0.0010577428,"MEAN_MOTION_DOT":-3.68e-6,"MEAN_MOTION_DDOT":0},{"OBJECT_NAME":"ONEWEB-0134","OBJECT_ID":"2020-100Y","EPOCH":"2025-12-26T03:26:28.181472","MEAN_MOTION":13.1244291,"ECCENTRICITY":0.00016718,"INCLINATION":87.8929,"RA_OF_ASC_NODE":25.0065,"ARG_OF_PERICENTER":85.3464,"MEAN_ANOMALY":274.7855,"EPHEMERIS_TYPE":0,"CLASSIFICATION_TYPE":"U","NORAD_CAT_ID":47280,"ELEMENT_SET_NO":999,"REV_AT_EPOCH":24201,"BSTAR":0.0014022687,"MEAN_MOTION_DOT":5.17e-6,"MEAN_MOTION_DDOT":0},{"OBJECT_NAME":"ONEWEB-0135","OBJECT_ID":"2020-100Z","EPOCH":"2025-12-26T00:55:11.374176","MEAN_MOTION":13.12442769,"ECCENTRICITY":0.00017184,"INCLINATION":87.8931,"RA_OF_ASC_NODE":25.0673,"ARG_OF_PERICENTER":82.5203,"MEAN_ANOMALY":277.6121,"EPHEMERIS_TYPE":0,"CLASSIFICATION_TYPE":"U","NORAD_CAT_ID":47281,"ELEMENT_SET_NO":999,"REV_AT_EPOCH":24202,"BSTAR":-0.00065145244,"MEAN_MOTION_DOT":-2.22e-6,"MEAN_MOTION_DDOT":0},{"OBJECT_NAME":"ONEWEB-0136","OBJECT_ID":"2020-100AA","EPOCH":"2025-12-26T01:22:01.648128","MEAN_MOTION":13.12442065,"ECCENTRICITY":0.00015033,"INCLINATION":87.8932,"RA_OF_ASC_NODE":25.0329,"ARG_OF_PERICENTER":84.2934,"MEAN_ANOMALY":275.8366,"EPHEMERIS_TYPE":0,"CLASSIFICATION_TYPE":"U","NORAD_CAT_ID":47282,"ELEMENT_SET_NO":999,"REV_AT_EPOCH":24195,"BSTAR":0.00096929434,"MEAN_MOTION_DOT":3.61e-6,"MEAN_MOTION_DDOT":0},{"OBJECT_NAME":"ONEWEB-0137","OBJECT_ID":"2020-100AB","EPOCH":"2025-12-26T07:40:08.725152","MEAN_MOTION":13.12441523,"ECCENTRICITY":0.00018016,"INCLINATION":87.893,"RA_OF_ASC_NODE":24.9861,"ARG_OF_PERICENTER":97.9295,"MEAN_ANOMALY":262.2038,"EPHEMERIS_TYPE":0,"CLASSIFICATION_TYPE":"U","NORAD_CAT_ID":47283,"ELEMENT_SET_NO":999,"REV_AT_EPOCH":24189,"BSTAR":-0.00039006665,"MEAN_MOTION_DOT":-1.28e-6,"MEAN_MOTION_DDOT":0},{"OBJECT_NAME":"ONEWEB-0138","OBJECT_ID":"2020-100AC","EPOCH":"2025-12-25T23:49:19.622208","MEAN_MOTION":13.12442045,"ECCENTRICITY":0.00016148,"INCLINATION":87.8931,"RA_OF_ASC_NODE":25.0598,"ARG_OF_PERICENTER":85.5938,"MEAN_ANOMALY":274.5375,"EPHEMERIS_TYPE":0,"CLASSIFICATION_TYPE":"U","NORAD_CAT_ID":47284,"ELEMENT_SET_NO":999,"REV_AT_EPOCH":24193,"BSTAR":0.001261128,"MEAN_MOTION_DOT":4.66e-6,"MEAN_MOTION_DDOT":0},{"OBJECT_NAME":"ONEWEB-0139","OBJECT_ID":"2020-100AD","EPOCH":"2025-12-26T02:37:49.884096","MEAN_MOTION":13.12442553,"ECCENTRICITY":0.00017427,"INCLINATION":87.8929,"RA_OF_ASC_NODE":25.0263,"ARG_OF_PERICENTER":94.4792,"MEAN_ANOMALY":265.6536,"EPHEMERIS_TYPE":0,"CLASSIFICATION_TYPE":"U","NORAD_CAT_ID":47285,"ELEMENT_SET_NO":999,"REV_AT_EPOCH":24202,"BSTAR":-0.0010578757,"MEAN_MOTION_DOT":-3.68e-6,"MEAN_MOTION_DDOT":0},{"OBJECT_NAME":"ONEWEB-0140","OBJECT_ID":"2020-100AE","EPOCH":"2025-12-26T01:31:48.722304","MEAN_MOTION":13.12442037,"ECCENTRICITY":0.00016769,"INCLINATION":87.8929,"RA_OF_ASC_NODE":25.0226,"ARG_OF_PERICENTER":89.8746,"MEAN_ANOMALY":270.2575,"EPHEMERIS_TYPE":0,"CLASSIFICATION_TYPE":"U","NORAD_CAT_ID":47286,"ELEMENT_SET_NO":999,"REV_AT_EPOCH":24198,"BSTAR":0.0011891793,"MEAN_MOTION_DOT":4.41e-6,"MEAN_MOTION_DDOT":0}]
